[{"OBJECT_NAME":"IRIDIUM 181","OBJECT_ID":"2023-068S","EPOCH":"2026-03-09T14:51:01.796256","MEAN_MOTION":14.43307145,"ECCENTRICITY":0.0002603,"INCLINATION":86.4454,"RA_OF_ASC_NODE":98.4288,"ARG_OF_PERICENTER":96.8881,"MEAN_ANOMALY":263.2616,"EPHEMERIS_TYPE":0,"CLASSIFICATION_TYPE":"U","NORAD_CAT_ID":56726,"ELEMENT_SET_NO":999,"REV_AT_EPOCH":14807,"BSTAR":1.6704e-5,"MEAN_MOTION_DOT":7.6e-7,"MEAN_MOTION_DDOT":0},{"OBJECT_NAME":"FENGYUN 1C DEB","OBJECT_ID":"1999-025CWV","EPOCH":"2026-03-01T16:59:10.430304","MEAN_MOTION":14.51549897,"ECCENTRICITY":0.00506186,"INCLINATION":99.4064,"RA_OF_ASC_NODE":29.4848,"ARG_OF_PERICENTER":353.3421,"MEAN_ANOMALY":6.7092,"EPHEMERIS_TYPE":0,"CLASSIFICATION_TYPE":"U","NORAD_CAT_ID":32304,"ELEMENT_SET_NO":999,"REV_AT_EPOCH":57418,"BSTAR":0.0017460474,"MEAN_MOTION_DOT":7.053e-5,"MEAN_MOTION_DDOT":0}]
